{"type": "FeatureCollection", "features": [ {"type": "Feature", "properties": {"norad_id": 58662, "name": "TIANMU-1 21", "group": "weather", "lat": -47.854733532208364, "lon": -91.93726211361421, "alt_km": 475.74260228173443, "timestamp": "2025-12-08T23:34:03.612967+00:00", "meta": {"OBJECT_NAME": "TIANMU-1 21", "OBJECT_ID": "2023-208C", "EPOCH": "2025-12-08T13:09:50.661792", "MEAN_MOTION": 15.31413315, "ECCENTRICITY": 0.00059206, "INCLINATION": 97.4378, "RA_OF_ASC_NODE": 95.9277, "ARG_OF_PERICENTER": 278.0977, "MEAN_ANOMALY": 81.9592, "EPHEMERIS_TYPE": 0, "CLASSIFICATION_TYPE": "U", "NORAD_CAT_ID": 58662, "ELEMENT_SET_NO": 999, "REV_AT_EPOCH": 10835, "BSTAR": 0.0004886317, "MEAN_MOTION_DOT": 0.00014765, "MEAN_MOTION_DDOT": 0}, "tle": {"line1": "1 58662U 23208C   25342.54850303  .00014765  00000+0  48863-3 0  9990", "line2": "2 58662  97.4378  95.9277 0005920 278.0977  81.9592 15.31413315108350"}}, "geometry": {"type": "Point", "coordinates": [-91.93726211361421, -47.854733532208364]}}, {"type": "Feature", "properties": {"norad_id": 58663, "name": "TIANMU-1 22", "group": "weather", "lat": -23.623617902916653, "lon": -89.18827063155601, "alt_km": 489.27579104901633, "timestamp": "2025-12-08T23:34:03.612977+00:00", "meta": {"OBJECT_NAME": "TIANMU-1 22", "OBJECT_ID": "2023-208D", "EPOCH": "2025-12-08T14:49:02.106336", "MEAN_MOTION": 15.27496213, "ECCENTRICITY": 0.00028187, "INCLINATION": 97.4386, "RA_OF_ASC_NODE": 93.7241, "ARG_OF_PERICENTER": 307.509, "MEAN_ANOMALY": 52.5892, "EPHEMERIS_TYPE": 0, "CLASSIFICATION_TYPE": "U", "NORAD_CAT_ID": 58663, "ELEMENT_SET_NO": 999, "REV_AT_EPOCH": 10820, "BSTAR": 0.0004358935, "MEAN_MOTION_DOT": 0.00011659, "MEAN_MOTION_DDOT": 0}, "tle": {"line1": "1 58663U 23208D   25342.61738549  .00011659  00000+0  43589-3 0  9995", "line2": "2 58663  97.4386  93.7241 0002818 307.5090  52.5892 15.27496213108208"}}, "geometry": {"type": "Point", "coordinates": [-89.18827063155601, -23.623617902916653]}}, {"type": "Feature", "properties": {"norad_id": 58700, "name": "TIANMU-1 15", "group": "weather", "lat": 12.337773388658075, "lon": 162.82232184302396, "alt_km": 491.37779600263093, "timestamp": "2025-12-08T23:34:03.612987+00:00", "meta": {"OBJECT_NAME": "TIANMU-1 15", "OBJECT_ID": "2024-004A", "EPOCH": "2025-12-08T14:03:43.649568", "MEAN_MOTION": 15.24595501, "ECCENTRICITY": 0.00053913, "INCLINATION": 97.4629, "RA_OF_ASC_NODE": 164.0708, "ARG_OF_PERICENTER": 315.6672, "MEAN_ANOMALY": 44.4133, "EPHEMERIS_TYPE": 0, "CLASSIFICATION_TYPE": "U", "NORAD_CAT_ID": 58700, "ELEMENT_SET_NO": 999, "REV_AT_EPOCH": 10671, "BSTAR": 0.00041614124, "MEAN_MOTION_DOT": 0.00010196, "MEAN_MOTION_DDOT": 0}, "tle": {"line1": "1 58700U 24004A   25342.58592187  .00010196  00000+0  41614-3 0  9996", "line2": "2 58700  97.4629 164.0708 0005391 315.6672  44.4133 15.24595501106714"}}, "geometry": {"type": "Point", "coordinates": [162.82232184302396, 12.337773388658075]}}, {"type": "Feature", "properties": {"norad_id": 58701, "name": "TIANMU-1 16", "group": "weather", "lat": 79.27459051697974, "lon": 27.60765847946994, "alt_km": 488.006794950129, "timestamp": "2025-12-08T23:34:03.612997+00:00", "meta": {"OBJECT_NAME": "TIANMU-1 16", "OBJECT_ID": "2024-004B", "EPOCH": "2025-12-08T15:15:47.991168", "MEAN_MOTION": 15.2434915, "ECCENTRICITY": 0.00046894, "INCLINATION": 97.4569, "RA_OF_ASC_NODE": 163.514, "ARG_OF_PERICENTER": 314.1644, "MEAN_ANOMALY": 45.9207, "EPHEMERIS_TYPE": 0, "CLASSIFICATION_TYPE": "U", "NORAD_CAT_ID": 58701, "ELEMENT_SET_NO": 999, "REV_AT_EPOCH": 10672, "BSTAR": 0.0004137661, "MEAN_MOTION_DOT": 0.00010062, "MEAN_MOTION_DDOT": 0}, "tle": {"line1": "1 58701U 24004B   25342.63597212  .00010062  00000+0  41377-3 0  9995", "line2": "2 58701  97.4569 163.5140 0004689 314.1644  45.9207 15.24349150106720"}}, "geometry": {"type": "Point", "coordinates": [27.60765847946994, 79.27459051697974]}}, {"type": "Feature", "properties": {"norad_id": 58702, "name": "TIANMU-1 17", "group": "weather", "lat": -1.6517807729359415, "lon": -15.950255708779661, "alt_km": 497.8172734669006, "timestamp": "2025-12-08T23:34:03.613007+00:00", "meta": {"OBJECT_NAME": "TIANMU-1 17", "OBJECT_ID": "2024-004C", "EPOCH": "2025-12-08T14:53:47.336064", "MEAN_MOTION": 15.2439307, "ECCENTRICITY": 0.00039164, "INCLINATION": 97.4602, "RA_OF_ASC_NODE": 163.9066, "ARG_OF_PERICENTER": 318.4004, "MEAN_ANOMALY": 41.6935, "EPHEMERIS_TYPE": 0, "CLASSIFICATION_TYPE": "U", "NORAD_CAT_ID": 58702, "ELEMENT_SET_NO": 999, "REV_AT_EPOCH": 10671, "BSTAR": 0.00039612549, "MEAN_MOTION_DOT": 9.641e-05, "MEAN_MOTION_DDOT": 0}, "tle": {"line1": "1 58702U 24004C   25342.62068676  .00009641  00000+0  39613-3 0  9993", "line2": "2 58702  97.4602 163.9066 0003916 318.4004  41.6935 15.24393070106719"}}, "geometry": {"type": "Point", "coordinates": [-15.950255708779661, -1.6517807729359415]}}, {"type": "Feature", "properties": {"norad_id": 58703, "name": "TIANMU-1 18", "group": "weather", "lat": -81.87451721603422, "lon": -128.90154150450127, "alt_km": 498.3903583326519, "timestamp": "2025-12-08T23:34:03.613018+00:00", "meta": {"OBJECT_NAME": "TIANMU-1 18", "OBJECT_ID": "2024-004D", "EPOCH": "2025-12-08T14:29:42.950976", "MEAN_MOTION": 15.24381854, "ECCENTRICITY": 0.00032828, "INCLINATION": 97.462, "RA_OF_ASC_NODE": 164.0844, "ARG_OF_PERICENTER": 319.4943, "MEAN_ANOMALY": 40.6049, "EPHEMERIS_TYPE": 0, "CLASSIFICATION_TYPE": "U", "NORAD_CAT_ID": 58703, "ELEMENT_SET_NO": 999, "REV_AT_EPOCH": 10671, "BSTAR": 0.00040097211, "MEAN_MOTION_DOT": 9.756e-05, "MEAN_MOTION_DDOT": 0}, "tle": {"line1": "1 58703U 24004D   25342.60396934  .00009756  00000+0  40097-3 0  9998", "line2": "2 58703  97.4620 164.0844 0003282 319.4943  40.6049 15.24381854106717"}}, "geometry": {"type": "Point", "coordinates": [-128.90154150450127, -81.87451721603422]}}, {"type": "Feature", "properties": {"norad_id": 58990, "name": "INSAT-3DS", "group": "weather", "lat": 0.009470633208636703, "lon": 153.55436124122141, "alt_km": 35789.15038142619, "timestamp": "2025-12-08T23:34:03.613029+00:00", "meta": {"OBJECT_NAME": "INSAT-3DS", "OBJECT_ID": "2024-033A", "EPOCH": "2025-12-08T13:59:42.496800", "MEAN_MOTION": 1.00269578, "ECCENTRICITY": 0.00016749, "INCLINATION": 0.0122, "RA_OF_ASC_NODE": 68.3918, "ARG_OF_PERICENTER": 195.2688, "MEAN_ANOMALY": 105.9379, "EPHEMERIS_TYPE": 0, "CLASSIFICATION_TYPE": "U", "NORAD_CAT_ID": 58990, "ELEMENT_SET_NO": 999, "REV_AT_EPOCH": 4515, "BSTAR": 0, "MEAN_MOTION_DOT": -1.53e-06, "MEAN_MOTION_DDOT": 0}, "tle": {"line1": "1 58990U 24033A   25342.58313075 -.00000153  00000+0  00000+0 0  9999", "line2": "2 58990   0.0122  68.3918 0001674 195.2688 105.9379  1.00269578 45157"}}, "geometry": {"type": "Point", "coordinates": [153.55436124122141, 0.009470633208636703]}}, {"type": "Feature", "properties": {"norad_id": 59051, "name": "METEOR-M2 4", "group": "weather", "lat": 25.44894762215676, "lon": -64.21718900779278, "alt_km": 811.3705831942616, "timestamp": "2025-12-08T23:34:03.613042+00:00", "meta": {"OBJECT_NAME": "METEOR-M2 4", "OBJECT_ID": "2024-039A", "EPOCH": "2025-12-08T15:00:21.185280", "MEAN_MOTION": 14.22400321, "ECCENTRICITY": 0.00072732, "INCLINATION": 98.6763, "RA_OF_ASC_NODE": 299.5988, "ARG_OF_PERICENTER": 10.2708, "MEAN_ANOMALY": 349.8618, "EPHEMERIS_TYPE": 0, "CLASSIFICATION_TYPE": "U", "NORAD_CAT_ID": 59051, "ELEMENT_SET_NO": 999, "REV_AT_EPOCH": 9217, "BSTAR": 6.4687e-05, "MEAN_MOTION_DOT": 1e-06, "MEAN_MOTION_DDOT": 0}, "tle": {"line1": "1 59051U 24039A   25342.62524520  .00000100  00000+0  64687-4 0  9995", "line2": "2 59051  98.6763 299.5988 0007273  10.2708 349.8618 14.22400321 92175"}}, "geometry": {"type": "Point", "coordinates": [-64.21718900779278, 25.44894762215676]}}, {"type": "Feature", "properties": {"norad_id": 60133, "name": "GOES 19", "group": "weather", "lat": 0.007381308197149739, "lon": -3.686474870895349, "alt_km": 35784.249637062436, "timestamp": "2025-12-08T23:34:03.613053+00:00", "meta": {"OBJECT_NAME": "GOES 19", "OBJECT_ID": "2024-119A", "EPOCH": "2025-12-08T12:36:26.154144", "MEAN_MOTION": 1.00268399, "ECCENTRICITY": 0.00011897, "INCLINATION": 0.0295, "RA_OF_ASC_NODE": 196.589, "ARG_OF_PERICENTER": 104.2361, "MEAN_ANOMALY": 250.6306, "EPHEMERIS_TYPE": 0, "CLASSIFICATION_TYPE": "U", "NORAD_CAT_ID": 60133, "ELEMENT_SET_NO": 999, "REV_AT_EPOCH": 505, "BSTAR": 0, "MEAN_MOTION_DOT": -2.46e-06, "MEAN_MOTION_DDOT": 0}, "tle": {"line1": "1 60133U 24119A   25342.52530271 -.00000246  00000+0  00000+0 0  9992", "line2": "2 60133   0.0295 196.5890 0001189 104.2361 250.6306  1.00268399  5055"}}, "geometry": {"type": "Point", "coordinates": [-3.686474870895349, 0.007381308197149739]}}, {"type": "Feature", "properties": {"norad_id": 65815, "name": "FENGYUN 3H", "group": "weather", "lat": -60.39421746393927, "lon": -61.79171965864733, "alt_km": 833.1478451523135, "timestamp": "2025-12-08T23:34:03.613066+00:00", "meta": {"OBJECT_NAME": "FENGYUN 3H", "OBJECT_ID": "2025-219A", "EPOCH": "2025-12-08T13:42:35.913600", "MEAN_MOTION": 14.19903021, "ECCENTRICITY": 6.088e-05, "INCLINATION": 98.6579, "RA_OF_ASC_NODE": 282.2523, "ARG_OF_PERICENTER": 83.047, "MEAN_ANOMALY": 277.0776, "EPHEMERIS_TYPE": 0, "CLASSIFICATION_TYPE": "U", "NORAD_CAT_ID": 65815, "ELEMENT_SET_NO": 999, "REV_AT_EPOCH": 1033, "BSTAR": 0.00012661054, "MEAN_MOTION_DOT": 2.26e-06, "MEAN_MOTION_DDOT": 0}, "tle": {"line1": "1 65815U 25219A   25342.57124900  .00000226  00000+0  12661-3 0  9996", "line2": "2 65815  98.6579 282.2523 0000608  83.0470 277.0776 14.19903021 10334"}}, "geometry": {"type": "Point", "coordinates": [-61.79171965864733, -60.39421746393927]}}]}